Active (0/1);Titles ID (Mr=1 , Ms=2);Username;Email;Type Document (CC=0,NIT=1,CE=2);DNI;Birthday(yyyy-mm-dd);Last Name;First Name;Newsletter (0/1);Opt-in (0/1);Address;Address 2;City;Phone;Phone Mobile
1;1;danilo-epsa;danilo-epsa@hotmail.com;0;94420927;1978-07-12;ordonez;hector;1;1;dagua;;Dagua;;3137594902
1;1;monterrosavega1;monterrosavega1@gmail.com;0;8058287;1985-08-15;monterrosas;nasser;1;1;calle 106 a 70 - 19;;Medellin;;3148859301
1;1;arabia.lenis;arabia.lenis@hotmail.com;0;31151168;1957-07-01;Lenis Arenas;Arabia;1;1;Carrera 22 # 187A-34 Sector 5 Casa 28;;Bogota;;3178555608
1;1;juanuribenov07;juanuribenov07@hotmail.com;0;98630686;1977-03-21;Uribe;Juan David;1;1;Calle 32 #43b-98;;Bello;;3014182216
1;1;ginnetdcortes;ginnetdcortes@gmail.com;0;1013645333;1993-12-03;CORTES ROMERO;LUZ GINNETD;1;1;TV 36 N 59 B 57 SUR;;Bogota;;3212377658
1;1;difedise;difedise@hotmail.com;0;80811972;1985-02-23;Dimate;Diego;1;1;cra 7 este No 43 - 87 sur;;Bogota;;3166300889
1;1;wilroma152;wilroma152@hotmail.com;0;5596152;1983-08-01;rodriguez;wilson;1;1;cra 10 n 15-17;;planeta rica;;3106200590
1;1;lyhb87;lyhb87@hotmail.com;0;1065592028;1987-11-13;Hernandez;Leslie;1;1;Cra 17b 175-91 T1 apt 901;;Bogota;;3208065240
1;1;shulayleonmartinez;shulayleonmartinez@hotmail.com;0;35261039;1979-12-26;leon martinez;jenyth shulay;1;1;calle 19 No. 24-61;;san jose del guaviare;;3203897270
1;1;claudiaycaros;claudiaycaros@outlook.com;0;52173629;1973-04-07;Caro;Claudia;1;1;Carrera 80 B N 6-94;;Bogota;;3114548776
1;1;rey1312;rey1312@hotmail.com;0;8499016;1983-12-13;DOMINGUEZ;REYNEL;1;1;Cl 7 #12-14;;Santo Tomas;;3106208262
1;1;amadoballestas;amadoballestas@hotmail.com;0;73559701;1975-05-02;Ballestas torres;Luis Manuel;1;1;Calle 5 #5-101 recepción;;Cartagena;;3136760764
1;1;karol_zipa;karol_zipa@hotmail.com;0;52864968;1981-12-16;ZIPA BORDA;CAROLINA;1;1;call 159A No 8B-10 APT 201;;Bogota;;3202470226
1;1;valenciacafe;valenciacafe@hotmail.com;0;79508295;1970-03-30;valencia;carlos;1;1;calle 117 d # 58- 50 apto714 torre 3;;Bogota;;3107630491
1;1;yulyduartegelvez;yulyduartegelvez@hotmail.com;0;60389006;1978-04-05;Duarte;Yuly;1;1;Calle 17AN 16BE 144;;Cucuta;;3102664296
1;1;paulapguevara70;paulapguevara70@gmail.com;0;39779058;1968-12-09;Guevara Rodriguez;paula patricia;1;1;carrera 11 #140 65 apto 310;;Bogota;;3135220294
1;1;nisiandrea;nisiandrea@yahoo.com;0;39628454;1978-06-30;Arias;Andrea;1;1;Carrera 68 K bis A 39-65;;Bogota;;3144611899
1;1;mara772;mara772@hotmail.com;0;66944459;1977-02-07;angulo;xiomara;1;1;cra 66 No 2-48;;Cali;;3183607265
1;1;isabelcristina_6;isabelcristina_6@hotmail.com;0;30581326;1982-07-12;TOVIO LOPEZ;ISABEL CRISTINA;1;1;cra 14D No.69-38;;Soledad;;3126984337
1;1;vilma.linan;vilma.linan@gmail.com;0;64702526;1997-09-16;linan;vilma;1;1;Barrio recreo;;Sincelejo;;3004859984
1;1;hamoandres;hamoandres@hotmail.com;0;10308000;1997-09-16;Munoz Ortega;Hector Andres;1;1;kr 49 # 2c-07;;POPAYAN;;3128371165
1;1;edpehe;edpehe@hotmail.com;0;93236424;1985-12-01;Perdomo Hernandez;Edward Enrique;1;1;Calle 163 # 7D-89;;Bogota;;3136069239
1;1;helbertbueno;helbertbueno@gmail.com;0;80449510;1984-04-11;BUENO;HELBERT;1;1;VDA LA BALSA EL JUNCAL LOTE 5 CHIA;;CHIA;;3002413201
1;1;novacommunications;novacommunications@hotmail.con;0;35196372;1983-07-22;Nova;Blanca;1;1;Calle16a#1a-12;;Chia;;3142917202
1;1;alvarezleonisa;alvarezleonisa@hotmail.com;0;43694718;1978-10-17;Alvarez Alvarez;Leonisa;1;1;calle 54 N0 51 28;;Gomez Plata;;3103812465
1;1;lauraromang;lauraromang@gmail.com;0;35478598;1975-12-10;Roman;Laura;1;1;Carrera 7 n. 87-80 ap 102;;Bogota;;3004662779
1;1;gustavo.cano;gustavo.cano@yahoo.es;0;71584404;1976-10-25;Cano Garcia;Gustavo Alonso;1;1;Carrera 46A 29sur 20;;Envigado;;3187158201
1;1;jairov77;jairov77@hotmail.com;0;1050035614;1959-03-16;Vasquez;Jairo;1;1;Calle 45 # 18-57;;Barranquilla;;3165655830
1;1;sandra.raigosa;sandra.raigosa@hotmail.com;0;43167615;1989-07-28;Raigosa Barrientos;Sandra;1;1;El retiro;;Antioquia;;3122972941
1;1;marbel_sd01;marbel_sd01@hotmail.com;0;32614318;1980-11-10;Varela gutierrez;Marbel;1;1;Carrera 7 a # 10b16;;Barranquilla;;3007785718
1;1;mayerlyortiz8596;mayerlyortiz8596@hotmail.com;0;1095786157;1981-08-18;Ortiz;Mayerly;1;1;Cll 25 # 7-61 lagos 3;;Floridablanca;;3196947925
1;1;blabame71;blabame71@hotmail.com;0;29816262;1995-09-06;ballesteros mejia;blanca;1;1;Dg 75 b # 8 -40 of 312;;Medellin;;3128517491
1;1;david25tor;david25tor@hotmail.com;0;80882629;1970-05-28;TORRES;DAVID;1;1;carrera 86 # 75a - 85;;Bogota;;3165300572
1;1;rcdt75;rcdt75@hotmail.com;0;79648503;1985-12-22;Duran tovar;Roberto carlos;1;1;Carrera 68 b # 76a42 interior 2 apartamento 302;;Bogota;;3104037870
1;1;rianesma_75;rianesma_75@yahoo.com;0;7169740;1975-10-10;Espitia;Ricardo;1;1;Calle 132 N° 45 A 19;;Bogota;;3173734585
1;1;favril2716;favril2716@hotmail.com;0;1098691304;1975-06-20;Garcia;Fabian;1;1;Calle 27 #6-38;;Bucaramanga;;3165353512
1;1;lauri_oliveros;lauri_oliveros@hotmail.com;0;28070687;1990-08-16;Oliveros;Laura;1;1;Calle 113# 58-08;;Bogota;;3015910606
1;1;fequinte62;fequinte62@hotmail.com;0;6560958;1981-06-21;QUINTERO PRIMERO;FERNEY;1;1;CRA 1A 59-60;;Cali;;3155262381
1;1;marcela.casas;marcela.casas@outlook.com;0;52124767;1962-03-05;Casas;Claudia;1;1;DG 52b sur 24b-30 int 7 ap 202;;Bogota;;3202829056
1;1;juliocvillafa;juliocvillafa@hotmail.com;0;19496384;1974-09-24;Villafane Pinzon;Julio Cesar;1;1;Carrera 107 No 142-57;;Bogota;;3005501908
1;1;jorgeivangranadam;jorgeivangranadam@gmail.com;0;6240943;1962-04-21;Granada Murgueitio;Jorge Ivan;1;1;Carrera 2 # 15 - 50;;Cartago;;3128123912
1;1;alexander.batista;alexander.batista@correo.policia.gov.co;0;73168437;1978-11-08;BATISTA ARIZA;ALEXANDER;1;1;Barrio los alpes calle 31E Nro. 71D-85;;Cartagena;;3008671553
1;1;gerencia;gerencia@propertyclub.co;0;10544525;1973-08-27;Laverde;Juan carlos;1;1;Calle 162 54-15;;Bogota;;3153209863
1;1;james-osorio;james-osorio@hotmail.com;0;1152683574;1974-02-26;Osorio;James;1;1;Calle 31A #87C-62;;Medellin;;3176918253
1;1;john.rodriguez92;john.rodriguez92@hotmail.es;0;1072666454;1991-02-13;Rodriguez;John;1;1;cra 12a5c06;;chia;;3057567518
1;1;andres_acosta_182;andres_acosta_182@hotmail.com;0;1030793465;1992-10-04;Barbosa;Andres;1;1;Calle 72a #87-75 Interior 3 apartamento 302;;Bogota;;3152928835
1;1;linasuarezs;linasuarezs@hotmail.com;0;42105995;1994-04-12;SUAREZ;Lina;1;1;Calle 16 #15-124;;Dosquebradas;;3212757520
